[{"OBJECT_NAME":"ONEWEB-0346","OBJECT_ID":"2021-083AC","EPOCH":"2025-10-07T07:48:13.794624","MEAN_MOTION":13.18684526,"ECCENTRICITY":0.00018066,"INCLINATION":87.9224,"RA_OF_ASC_NODE":25.6838,"ARG_OF_PERICENTER":80.2906,"MEAN_ANOMALY":279.843,"EPHEMERIS_TYPE":0,"CLASSIFICATION_TYPE":"U","NORAD_CAT_ID":49212,"ELEMENT_SET_NO":999,"REV_AT_EPOCH":19665,"BSTAR":0.00026023151,"MEAN_MOTION_DOT":1.15e-6,"MEAN_MOTION_DDOT":0},{"OBJECT_NAME":"ONEWEB-0348","OBJECT_ID":"2021-083AD","EPOCH":"2025-10-07T03:53:33.364608","MEAN_MOTION":13.20770942,"ECCENTRICITY":0.00023711,"INCLINATION":87.9228,"RA_OF_ASC_NODE":324.9028,"ARG_OF_PERICENTER":86.0503,"MEAN_ANOMALY":274.0901,"EPHEMERIS_TYPE":0,"CLASSIFICATION_TYPE":"U","NORAD_CAT_ID":49213,"ELEMENT_SET_NO":999,"REV_AT_EPOCH":20341,"BSTAR":-0.00051108693,"MEAN_MOTION_DOT":-1.95e-6,"MEAN_MOTION_DDOT":0},{"OBJECT_NAME":"ONEWEB-0350","OBJECT_ID":"2021-083AE","EPOCH":"2025-10-07T06:53:39.018624","MEAN_MOTION":13.13471646,"ECCENTRICITY":0.00021365,"INCLINATION":87.9053,"RA_OF_ASC_NODE":10.473,"ARG_OF_PERICENTER":99.3587,"MEAN_ANOMALY":260.7784,"EPHEMERIS_TYPE":0,"CLASSIFICATION_TYPE":"U","NORAD_CAT_ID":49214,"ELEMENT_SET_NO":999,"REV_AT_EPOCH":19773,"BSTAR":-0.0006057656,"MEAN_MOTION_DOT":-2.08e-6,"MEAN_MOTION_DDOT":0},{"OBJECT_NAME":"ONEWEB-0351","OBJECT_ID":"2021-083AF","EPOCH":"2025-10-07T03:44:18.021696","MEAN_MOTION":13.20771354,"ECCENTRICITY":0.0002231,"INCLINATION":87.9236,"RA_OF_ASC_NODE":324.8943,"ARG_OF_PERICENTER":120.2934,"MEAN_ANOMALY":239.842,"EPHEMERIS_TYPE":0,"CLASSIFICATION_TYPE":"U","NORAD_CAT_ID":49215,"ELEMENT_SET_NO":999,"REV_AT_EPOCH":20337,"BSTAR":0.00017496413,"MEAN_MOTION_DOT":8.4e-7,"MEAN_MOTION_DDOT":0},{"OBJECT_NAME":"ONEWEB-0352","OBJECT_ID":"2021-083AG","EPOCH":"2025-10-07T06:25:36.992928","MEAN_MOTION":13.1347055,"ECCENTRICITY":0.00018623,"INCLINATION":87.9037,"RA_OF_ASC_NODE":10.5082,"ARG_OF_PERICENTER":114.1872,"MEAN_ANOMALY":245.9452,"EPHEMERIS_TYPE":0,"CLASSIFICATION_TYPE":"U","NORAD_CAT_ID":49216,"ELEMENT_SET_NO":999,"REV_AT_EPOCH":19782,"BSTAR":1.9926507e-5,"MEAN_MOTION_DOT":2.0e-7,"MEAN_MOTION_DDOT":0},{"OBJECT_NAME":"ONEWEB-0354","OBJECT_ID":"2021-083AH","EPOCH":"2025-10-07T04:20:51.200160","MEAN_MOTION":13.20771875,"ECCENTRICITY":0.00021885,"INCLINATION":87.924,"RA_OF_ASC_NODE":324.8874,"ARG_OF_PERICENTER":93.3932,"MEAN_ANOMALY":266.7452,"EPHEMERIS_TYPE":0,"CLASSIFICATION_TYPE":"U","NORAD_CAT_ID":49217,"ELEMENT_SET_NO":999,"REV_AT_EPOCH":20341,"BSTAR":5.5811242e-5,"MEAN_MOTION_DOT":3.6e-7,"MEAN_MOTION_DDOT":0},{"OBJECT_NAME":"ONEWEB-0355","OBJECT_ID":"2021-083AJ","EPOCH":"2025-10-07T07:07:16.038624","MEAN_MOTION":13.1347206,"ECCENTRICITY":0.00019863,"INCLINATION":87.9046,"RA_OF_ASC_NODE":10.5117,"ARG_OF_PERICENTER":104.9788,"MEAN_ANOMALY":255.1561,"EPHEMERIS_TYPE":0,"CLASSIFICATION_TYPE":"U","NORAD_CAT_ID":49218,"ELEMENT_SET_NO":999,"REV_AT_EPOCH":19770,"BSTAR":-9.7223352e-5,"MEAN_MOTION_DOT":-2.3e-7,"MEAN_MOTION_DDOT":0},{"OBJECT_NAME":"ONEWEB-0357","OBJECT_ID":"2021-083AK","EPOCH":"2025-10-07T04:16:18.394752","MEAN_MOTION":13.20772711,"ECCENTRICITY":0.00020041,"INCLINATION":87.9235,"RA_OF_ASC_NODE":324.8864,"ARG_OF_PERICENTER":100.0729,"MEAN_ANOMALY":260.0631,"EPHEMERIS_TYPE":0,"CLASSIFICATION_TYPE":"U","NORAD_CAT_ID":49219,"ELEMENT_SET_NO":999,"REV_AT_EPOCH":20341,"BSTAR":0.00024998995,"MEAN_MOTION_DOT":1.15e-6,"MEAN_MOTION_DDOT":0},{"OBJECT_NAME":"ONEWEB-0332","OBJECT_ID":"2021-090A","EPOCH":"2025-10-07T04:52:28.738560","MEAN_MOTION":13.14501848,"ECCENTRICITY":0.00016705,"INCLINATION":87.9053,"RA_OF_ASC_NODE":340.1103,"ARG_OF_PERICENTER":105.056,"MEAN_ANOMALY":255.0755,"EPHEMERIS_TYPE":0,"CLASSIFICATION_TYPE":"U","NORAD_CAT_ID":49279,"ELEMENT_SET_NO":999,"REV_AT_EPOCH":19434,"BSTAR":-0.00046766121,"MEAN_MOTION_DOT":-1.61e-6,"MEAN_MOTION_DDOT":0},{"OBJECT_NAME":"ONEWEB-0347","OBJECT_ID":"2021-090B","EPOCH":"2025-10-07T04:02:38.962464","MEAN_MOTION":13.20773013,"ECCENTRICITY":0.00015414,"INCLINATION":87.9232,"RA_OF_ASC_NODE":324.9017,"ARG_OF_PERICENTER":97.975,"MEAN_ANOMALY":262.1558,"EPHEMERIS_TYPE":0,"CLASSIFICATION_TYPE":"U","NORAD_CAT_ID":49280,"ELEMENT_SET_NO":999,"REV_AT_EPOCH":19764,"BSTAR":9.5494969e-5,"MEAN_MOTION_DOT":5.2e-7,"MEAN_MOTION_DDOT":0},{"OBJECT_NAME":"ONEWEB-0349","OBJECT_ID":"2021-090C","EPOCH":"2025-10-07T04:48:06.668352","MEAN_MOTION":13.20772644,"ECCENTRICITY":0.00019363,"INCLINATION":87.9232,"RA_OF_ASC_NODE":324.8955,"ARG_OF_PERICENTER":99.2733,"MEAN_ANOMALY":260.8619,"EPHEMERIS_TYPE":0,"CLASSIFICATION_TYPE":"U","NORAD_CAT_ID":49281,"ELEMENT_SET_NO":999,"REV_AT_EPOCH":19643,"BSTAR":-9.2449818e-5,"MEAN_MOTION_DOT":-2.5e-7,"MEAN_MOTION_DDOT":0},{"OBJECT_NAME":"ONEWEB-0353","OBJECT_ID":"2021-090D","EPOCH":"2025-10-07T04:41:03.991776","MEAN_MOTION":13.1450223,"ECCENTRICITY":0.00016362,"INCLINATION":87.9047,"RA_OF_ASC_NODE":340.0943,"ARG_OF_PERICENTER":103.2106,"MEAN_ANOMALY":256.9207,"EPHEMERIS_TYPE":0,"CLASSIFICATION_TYPE":"U","NORAD_CAT_ID":49282,"ELEMENT_SET_NO":999,"REV_AT_EPOCH":19434,"BSTAR":-0.00075555789,"MEAN_MOTION_DOT":-2.67e-6,"MEAN_MOTION_DDOT":0},{"OBJECT_NAME":"ONEWEB-0356","OBJECT_ID":"2021-090E","EPOCH":"2025-10-07T04:45:50.201280","MEAN_MOTION":13.20773046,"ECCENTRICITY":0.00017089,"INCLINATION":87.9229,"RA_OF_ASC_NODE":324.8873,"ARG_OF_PERICENTER":69.0346,"MEAN_ANOMALY":291.097,"EPHEMERIS_TYPE":0,"CLASSIFICATION_TYPE":"U","NORAD_CAT_ID":49283,"ELEMENT_SET_NO":999,"REV_AT_EPOCH":19643,"BSTAR":-0.00024383632,"MEAN_MOTION_DOT":-8.6e-7,"MEAN_MOTION_DDOT":0},{"OBJECT_NAME":"ONEWEB-0358","OBJECT_ID":"2021-090F","EPOCH":"2025-10-07T03:39:56.788704","MEAN_MOTION":13.20771863,"ECCENTRICITY":0.00019699,"INCLINATION":87.924,"RA_OF_ASC_NODE":324.8919,"ARG_OF_PERICENTER":92.1194,"MEAN_ANOMALY":268.0165,"EPHEMERIS_TYPE":0,"CLASSIFICATION_TYPE":"U","NORAD_CAT_ID":49284,"ELEMENT_SET_NO":999,"REV_AT_EPOCH":19715,"BSTAR":5.3926304e-5,"MEAN_MOTION_DOT":3.5e-7,"MEAN_MOTION_DDOT":0},{"OBJECT_NAME":"ONEWEB-0359","OBJECT_ID":"2021-090G","EPOCH":"2025-10-07T03:35:24.293472","MEAN_MOTION":13.20771965,"ECCENTRICITY":0.00022348,"INCLINATION":87.9229,"RA_OF_ASC_NODE":324.8976,"ARG_OF_PERICENTER":92.6521,"MEAN_ANOMALY":267.4868,"EPHEMERIS_TYPE":0,"CLASSIFICATION_TYPE":"U","NORAD_CAT_ID":49285,"ELEMENT_SET_NO":999,"REV_AT_EPOCH":19713,"BSTAR":0.00022856143,"MEAN_MOTION_DOT":1.06e-6,"MEAN_MOTION_DDOT":0},{"OBJECT_NAME":"ONEWEB-0360","OBJECT_ID":"2021-090H","EPOCH":"2025-10-07T03:21:45.932544","MEAN_MOTION":13.20772132,"ECCENTRICITY":0.00020482,"INCLINATION":87.9232,"RA_OF_ASC_NODE":324.9088,"ARG_OF_PERICENTER":96.8443,"MEAN_ANOMALY":263.2924,"EPHEMERIS_TYPE":0,"CLASSIFICATION_TYPE":"U","NORAD_CAT_ID":49286,"ELEMENT_SET_NO":999,"REV_AT_EPOCH":19644,"BSTAR":0.00021610008,"MEAN_MOTION_DOT":1.01e-6,"MEAN_MOTION_DDOT":0}]
