ONEWEB-0346             
1 49212U 21083AC  25280.32515966  .00000115  00000+0  26023-3 0  9998
2 49212  87.9224  25.6838 0001806  80.2906 279.8430 13.18684526196658
ONEWEB-0348             
1 49213U 21083AD  25280.16219172 -.00000195  00000+0 -51109-3 0  9994
2 49213  87.9228 324.9028 0002371  86.0503 274.0901 13.20770942203418
ONEWEB-0350             
1 49214U 21083AE  25280.28725716 -.00000208  00000+0 -60577-3 0  9998
2 49214  87.9053  10.4730 0002136  99.3587 260.7784 13.13471646197739
ONEWEB-0351             
1 49215U 21083AF  25280.15576414  .00000084  00000+0  17496-3 0  9996
2 49215  87.9236 324.8943 0002231 120.2934 239.8420 13.20771354203376
ONEWEB-0352             
1 49216U 21083AG  25280.26778927  .00000020  00000+0  19927-4 0  9994
2 49216  87.9037  10.5082 0001862 114.1872 245.9452 13.13470550197822
ONEWEB-0354             
1 49217U 21083AH  25280.18114815  .00000036  00000+0  55811-4 0  9995
2 49217  87.9240 324.8874 0002188  93.3932 266.7452 13.20771875203412
ONEWEB-0355             
1 49218U 21083AJ  25280.29671341 -.00000023  00000+0 -97223-4 0  9991
2 49218  87.9046  10.5117 0001986 104.9788 255.1561 13.13472060197702
ONEWEB-0357             
1 49219U 21083AK  25280.17799068  .00000115  00000+0  24999-3 0  9995
2 49219  87.9235 324.8864 0002004 100.0729 260.0631 13.20772711203410
ONEWEB-0332             
1 49279U 21090A   25280.20311040 -.00000161  00000+0 -46766-3 0  9992
2 49279  87.9053 340.1103 0001670 105.0560 255.0755 13.14501848194343
ONEWEB-0347             
1 49280U 21090B   25280.16850651  .00000052  00000+0  95495-4 0  9996
2 49280  87.9232 324.9017 0001541  97.9750 262.1558 13.20773013197643
ONEWEB-0349             
1 49281U 21090C   25280.20007718 -.00000025  00000+0 -92450-4 0  9990
2 49281  87.9232 324.8955 0001936  99.2733 260.8619 13.20772644196436
ONEWEB-0353             
1 49282U 21090D   25280.19518509 -.00000267  00000+0 -75556-3 0  9999
2 49282  87.9047 340.0943 0001636 103.2106 256.9207 13.14502230194347
ONEWEB-0356             
1 49283U 21090E   25280.19849770 -.00000086  00000+0 -24384-3 0  9999
2 49283  87.9229 324.8873 0001708  69.0346 291.0970 13.20773046196438
ONEWEB-0358             
1 49284U 21090F   25280.15274061  .00000035  00000+0  53926-4 0  9998
2 49284  87.9240 324.8919 0001969  92.1194 268.0165 13.20771863197155
ONEWEB-0359             
1 49285U 21090G   25280.14958673  .00000106  00000+0  22856-3 0  9992
2 49285  87.9229 324.8976 0002234  92.6521 267.4868 13.20771965197135
ONEWEB-0360             
1 49286U 21090H   25280.14011496  .00000101  00000+0  21610-3 0  9998
2 49286  87.9232 324.9088 0002048  96.8443 263.2924 13.20772132196444
